SITRO-AIS 6 (CHIRKIN)   
1 57192U 23091AC  26191.25911544  .00007547  00000+0  29248-3 0  9999
2 57192  97.5060 254.3793 0011706  33.3835 326.8139 15.26379478167802
SITRO-AIS 8 (ANOKHIN)   
1 57193U 23091AD  26191.20241345  .00010934  00000+0  34735-3 0  9991
2 57193  97.5048 257.0109 0010039  25.8713 334.3028 15.32772143167971
SITRO-AIS 7 (FARTUSHNIY)
1 57194U 23091AE  26191.26705896  .00007270  00000+0  28462-3 0  9993
2 57194  97.5057 254.2002 0011660  34.5317 325.6677 15.26055673167799
AVION KALUGA 650        
1 57195U 23091AF  26191.32761777  .00003846  00000+0  17845-3 0  9999
2 57195  97.5081 250.8119 0010933  38.4106 321.7905 15.20600726167542
HORS 2                  
1 57196U 23091AG  26191.28339783  .00009159  00000+0  29429-3 0  9997
2 57196  97.5081 258.6351 0007377  13.3384 346.8051 15.32482467168066
A-SEANSAT-PG1           
1 57197U 23091AH  26191.31298015  .00013247  00000+0  35885-3 0  9990
2 57197  97.5072 261.3988 0006162   8.5142 351.6206 15.37773344168263
SITRO-AIS 10 (BURDAEV)  
1 57199U 23091AK  26191.26537475  .00015293  00000+0  39130-3 0  9992
2 57199  97.5074 262.3716 0005334   1.7297 358.3966 15.39503764168315
SITRO-AIS 9 (SHCHUKIN)  
1 57201U 23091AM  26191.29927016  .00014350  00000+0  37349-3 0  9996
2 57201  97.5072 262.1179 0005594   1.8551 358.2713 15.38992494168309
UTMN 2 (RS27S)          
1 57203U 23091AP  26191.30833095  .00009439  00000+0  30185-3 0  9996
2 57203  97.5080 258.8568 0007242   8.2582 351.8778 15.32626826168083
SITRO-AIS 12 (SMIRENNIY)
1 57204U 23091AQ  26191.28549391  .00015041  00000+0  38765-3 0  9995
2 57204  97.5085 262.5855 0005111 355.2058   4.9138 15.39286238168325
SITRO-AIS 11 (SHEFFER)  
1 57208U 23091AU  26191.29242149  .00015016  00000+0  38149-3 0  9999
2 57208  97.5083 262.8539 0005031 354.8543   5.2650 15.39728055168347
H2SAT (HEINRICH HERTZ)  
1 57213U 23093A   26191.06798597  .00000014  00000+0  00000+0 0  9998
2 57213   0.0175 102.3909 0000798  32.1109 178.6751  1.00273286 11148
KUZGTU 1 (RS47S)        
1 57217U 23091AV  26191.31515923  .00008674  00000+0  29719-3 0  9990
2 57217  97.5056 256.0368 0010603  23.5069 336.6655 15.30400062167910
QIANKUN-1               
1 57422U 23103B   26190.51657901  .00014836  17439-5  17457-4 0  9990
2 57422  96.1478 233.7894 0036275 139.5319 220.8675 16.07683835170888
FENGYUN 3F              
1 57490U 23111A   26191.29819719  .00000012  00000+0  26073-4 0  9992
2 57490  98.6827 260.8753 0001374  78.4529 281.6802 14.19942931152141
HJ-2F                   
1 57519U 23116A   26191.32164089  .00004823  00000+0  21010-3 0  9995
2 57519  97.3848 196.1418 0007076 333.1273  26.9596 15.22651694162276
XRISM                   
1 57800U 23137A   26191.22138521  .00002469  00000+0  13227-3 0  9997
2 57800  31.0008 210.3738 0007840 196.7310 163.3071 15.12649077156357
METEOR-M2 4             
1 59051U 24039A   26191.32594108 -.00000006  00000+0  17044-4 0  9995
2 59051  98.7022 150.3346 0008217 100.8739 259.3364 14.22431853122558
GRBBETA                 
1 60237U 24128C   26190.31968764  .00002568  00000+0  18354-3 0  9991
2 60237  61.9890 138.6053 0037769 139.4381 220.9537 15.06782844109609
TRANSPORTER-11 OBJECT A 
1 60468U 24149A   26189.75798866  .00006218  00000+0  19585-3 0  9993
2 60468  97.3723 269.6246 0004586 132.7841 227.3788 15.33269761105366
WARATAH SEED-1          
1 60469U 24149B   26191.16944391  .00010361  00000+0  29273-3 0  9997
2 60469  97.3685 271.7730 0003077 130.3806 229.7708 15.36535748105648
PHISAT 2                
1 60470U 24149C   26190.20098502  .00004732  00000+0  15878-3 0  9998
2 60470  97.3750 269.2980 0002890 133.4562 226.6921 15.31364030105368
LEMUR-2-TOMATOKECHUP    
1 60471U 24149D   26191.16513986  .00008259  00000+0  23404-3 0  9995
2 60471  97.3795 273.2768 0003048 131.7960 228.3545 15.36515487105692
CONNECTA IOT-1          
1 60472U 24149E   26191.08209687  .00002928  00000+0  12486-3 0  9992
2 60472  97.3752 266.9881 0002389 153.0372 207.0990 15.23717609105281
LOPEN                   
1 60473U 24149F   26189.76787722  .00011867  00000+0  29618-3 0  9993
2 60473  97.3769 273.3128 0002438 145.2182 214.9224 15.40332623105581
ROCK                    
1 60474U 24149G   26189.75456404  .00011046  00000+0  27596-3 0  9995
2 60474  97.3767 273.3139 0002736 144.4938 215.6491 15.40321242105582
CONNECTA IOT-3          
1 60475U 24149H   26191.16895471  .00002870  00000+0  12237-3 0  9996
2 60475  97.3727 266.8195 0003505 155.4468 204.6937 15.23731231105300
QUBE                    
1 60476U 24149J   26190.47880746  .00021010  00000+0  39888-3 0  9997
2 60476  97.3766 277.3580 0003335 141.9147 218.2340 15.48313313105914
WREN-1                  
1 60478U 24149L   26191.17129090  .00016702  00000+0  38701-3 0  9990
2 60478  97.3761 275.5386 0005059 166.2884 193.8501 15.42489784105869
