OBJECT_NAME,OBJECT_ID,EPOCH,MEAN_MOTION,ECCENTRICITY,INCLINATION,RA_OF_ASC_NODE,ARG_OF_PERICENTER,MEAN_ANOMALY,EPHEMERIS_TYPE,CLASSIFICATION_TYPE,NORAD_CAT_ID,ELEMENT_SET_NO,REV_AT_EPOCH,BSTAR,MEAN_MOTION_DOT,MEAN_MOTION_DDOT
SITRO-AIS 6 (CHIRKIN),2023-091AC,2026-07-10T06:13:07.574016,15.26379478,.00117061,97.5060,254.3793,33.3835,326.8139,0,U,57192,999,16780,.29247567E-3,.7547E-4,0
SITRO-AIS 8 (ANOKHIN),2023-091AD,2026-07-10T04:51:28.522080,15.32772143,.0010039,97.5048,257.0109,25.8713,334.3028,0,U,57193,999,16797,.34735139E-3,.10934E-3,0
SITRO-AIS 7 (FARTUSHNIY),2023-091AE,2026-07-10T06:24:33.894144,15.26055673,.00116606,97.5057,254.2002,34.5317,325.6677,0,U,57194,999,16779,.28461851E-3,.727E-4,0
AVION KALUGA 650,2023-091AF,2026-07-10T07:51:46.175328,15.20600726,.00109337,97.5081,250.8119,38.4106,321.7905,0,U,57195,999,16754,.17845096E-3,.3846E-4,0
HORS 2,2023-091AG,2026-07-10T06:48:05.572512,15.32482467,.00073779,97.5081,258.6351,13.3384,346.8051,0,U,57196,999,16806,.29429235E-3,.9159E-4,0
A-SEANSAT-PG1,2023-091AH,2026-07-10T07:30:41.484960,15.37773344,.00061626,97.5072,261.3988,8.5142,351.6206,0,U,57197,999,16826,.35885039E-3,.13247E-3,0
SITRO-AIS 10 (BURDAEV),2023-091AK,2026-07-10T06:22:08.378400,15.39503764,.00053344,97.5074,262.3716,1.7297,358.3966,0,U,57199,999,16831,.39130236E-3,.15293E-3,0
SITRO-AIS 9 (SHCHUKIN),2023-091AM,2026-07-10T07:10:56.941824,15.38992494,.00055948,97.5072,262.1179,1.8551,358.2713,0,U,57201,999,16830,.37349258E-3,.1435E-3,0
UTMN 2 (RS27S),2023-091AP,2026-07-10T07:23:59.794080,15.32626826,.00072425,97.5080,258.8568,8.2582,351.8778,0,U,57203,999,16808,.30184807E-3,.9439E-4,0
SITRO-AIS 12 (SMIRENNIY),2023-091AQ,2026-07-10T06:51:06.673824,15.39286238,.00051119,97.5085,262.5855,355.2058,4.9138,0,U,57204,999,16832,.38765143E-3,.15041E-3,0
SITRO-AIS 11 (SHEFFER),2023-091AU,2026-07-10T07:01:05.216736,15.39728055,.00050311,97.5083,262.8539,354.8543,5.2650,0,U,57208,999,16834,.3814862E-3,.15016E-3,0
H2SAT (HEINRICH HERTZ),2023-093A,2026-07-10T01:37:53.987808,1.00273286,.00007987,0.0175,102.3909,32.1109,178.6751,0,U,57213,999,1114,0,.14E-6,0
KUZGTU 1 (RS47S),2023-091AV,2026-07-10T07:33:49.757472,15.30400062,.00106039,97.5056,256.0368,23.5069,336.6655,0,U,57217,999,16791,.29718733E-3,.8674E-4,0
QIANKUN-1,2023-103B,2026-07-09T12:23:52.426464,16.07683835,.0036275,96.1478,233.7894,139.5319,220.8675,0,U,57422,999,17088,.17456964E-4,.14836E-3,.1743906E-5
FENGYUN 3F,2023-111A,2026-07-10T07:09:24.237216,14.19942931,.00013745,98.6827,260.8753,78.4529,281.6802,0,U,57490,999,15214,.26072737E-4,.12E-6,0
HJ-2F,2023-116A,2026-07-10T07:43:09.772896,15.22651694,.00070763,97.3848,196.1418,333.1273,26.9596,0,U,57519,999,16227,.21010387E-3,.4823E-4,0
XRISM,2023-137A,2026-07-10T05:18:47.682144,15.12649077,.000784,31.0008,210.3738,196.7310,163.3071,0,U,57800,999,15635,.13227435E-3,.2469E-4,0
METEOR-M2 4,2024-039A,2026-07-10T07:49:21.309312,14.22431853,.00082177,98.7022,150.3346,100.8739,259.3364,0,U,59051,999,12255,.17043908E-4,-.6E-7,0
GRBBETA,2024-128C,2026-07-09T07:40:21.012096,15.06782844,.00377691,61.9890,138.6053,139.4381,220.9537,0,U,60237,999,10960,.18353788E-3,.2568E-4,0
TRANSPORTER-11 OBJECT A,2024-149A,2026-07-08T18:11:30.220224,15.33269761,.00045867,97.3723,269.6246,132.7841,227.3788,0,U,60468,999,10536,.19585167E-3,.6218E-4,0
WARATAH SEED-1,2024-149B,2026-07-10T04:03:59.953824,15.36535748,.00030773,97.3685,271.7730,130.3806,229.7708,0,U,60469,999,10564,.29272946E-3,.10361E-3,0
PHISAT 2,2024-149C,2026-07-09T04:49:25.105728,15.31364030,.00028906,97.3750,269.2980,133.4562,226.6921,0,U,60470,999,10536,.15877677E-3,.4732E-4,0
LEMUR-2-TOMATOKECHUP,2024-149D,2026-07-10T03:57:48.083904,15.36515487,.00030486,97.3795,273.2768,131.7960,228.3545,0,U,60471,999,10569,.23403615E-3,.8259E-4,0
CONNECTA IOT-1,2024-149E,2026-07-10T01:58:13.169568,15.23717609,.00023898,97.3752,266.9881,153.0372,207.0990,0,U,60472,999,10528,.12486497E-3,.2928E-4,0
LOPEN,2024-149F,2026-07-08T18:25:44.591808,15.40332623,.00024386,97.3769,273.3128,145.2182,214.9224,0,U,60473,999,10558,.29617568E-3,.11867E-3,0
ROCK,2024-149G,2026-07-08T18:06:34.333056,15.40321242,.0002736,97.3767,273.3139,144.4938,215.6491,0,U,60474,999,10558,.27595597E-3,.11046E-3,0
CONNECTA IOT-3,2024-149H,2026-07-10T04:03:17.686944,15.23731231,.00035052,97.3727,266.8195,155.4468,204.6937,0,U,60475,999,10530,.12236852E-3,.287E-4,0
QUBE,2024-149J,2026-07-09T11:29:28.964544,15.48313313,.00033359,97.3766,277.3580,141.9147,218.2340,0,U,60476,999,10591,.39887871E-3,.2101E-3,0
WREN-1,2024-149L,2026-07-10T04:06:39.533760,15.42489784,.00050595,97.3761,275.5386,166.2884,193.8501,0,U,60478,999,10586,.38700966E-3,.16702E-3,0
